H1 CPF  1  HTS 2022  9  4 12  7471 larets           NONE
H2  0304206 5557    27944 2022 09 04  0  0  0 2022 09 09  0  0  0   180 1 1  0 0 0
H5  0.0560 
H9 
10 0 59827  34920.00000  0    1402090.560    5062842.360    4715132.140
10 0 59827  35100.00000  0    1936571.324    5728166.225    3649238.877
10 0 59827  35280.00000  0    2415193.743    6171899.862    2449678.992
10 0 59827  35460.00000  0    2814590.982    6379784.772    1160431.601
10 0 59827  35640.00000  0    3114062.502    6346780.849    -171276.227
10 0 59827  35820.00000  0    3296572.235    6077155.142   -1496734.996
10 0 59827  36000.00000  0    3349601.935    5584189.209   -2767568.087
10 0 59827  36180.00000  0    3265815.824    4889522.039   -3937521.156
10 0 59827  36360.00000  0    3043501.894    4022163.690   -4964147.422
10 0 59827  36540.00000  0    2686772.680    3017242.454   -5810317.797
10 0 59827  36720.00000  0    2205525.359    1914552.047   -6445509.531
10 0 59827  36900.00000  0    1615167.068     756965.901   -6846838.009
10 0 59827  37080.00000  0     936122.587    -411212.491   -6999814.086
10 0 59827  37260.00000  0     193138.498   -1545909.100   -6898825.501
10 0 59827  37440.00000  0    -585594.959   -2604898.993   -6547330.961
10 0 59827  37620.00000  0   -1369479.401   -3549342.504   -5957774.869
10 0 59827  37800.00000  0   -2126677.463   -4345201.621   -5151210.902
10 0 59827  37980.00000  0   -2825381.214   -4964490.357   -4156635.201
10 0 59827  38160.00000  0   -3435141.622   -5386314.835   -3010024.357
10 0 59827  38340.00000  0   -3928200.884   -5597648.911   -1753091.600
10 0 59827  38520.00000  0   -4280767.442   -5593804.384    -431792.322
10 0 59827  38700.00000  0   -4474163.962   -5378559.481     905375.600
10 0 59827  38880.00000  0   -4495780.300   -4963926.391    2209206.269
10 0 59827  39060.00000  0   -4339773.910   -4369559.550    3431669.231
10 0 59827  39240.00000  0   -4007476.846   -3621836.455    4527746.687
10 0 59827  39420.00000  0   -3507488.465   -2752662.538    5457140.865
10 0 59827  39600.00000  0   -2855451.415   -1798067.163    6185772.199
10 0 59827  39780.00000  0   -2073530.556    -796671.006    6687019.607
10 0 59827  39960.00000  0   -1189616.885     211912.096    6942666.147
10 0 59827  40140.00000  0    -236295.584    1188661.725    6943516.456
10 0 59827  40320.00000  0     750374.180    2096665.782    6689695.024
10 0 59827  40500.00000  0    1732234.645    2902519.791    6190619.551
10 0 59827  40680.00000  0    2670510.571    3577558.805    5464651.991
10 0 59827  40860.00000  0    3527347.733    4098888.539    4538440.198
10 0 59827  41040.00000  0    4267352.694    4450176.386    3445955.857
10 0 59827  41220.00000  0    4859072.009    4622174.626    2227261.542
10 0 59827  41400.00000  0    5276346.026    4612948.833     927030.530
10 0 59827  41580.00000  0    5499465.078    4427797.844    -407116.444
10 0 59827  41760.00000  0    5516069.338    4078867.094   -1726395.613
10 0 59827  41940.00000  0    5321743.791    3584477.423   -2982678.658
10 0 59827  42120.00000  0    4920286.543    2968209.344   -4130266.353
10 0 59827  42300.00000  0    4323641.493    2257796.711   -5127546.283
10 0 59827  42480.00000  0    3551504.594    1483883.165   -5938468.857
10 0 59827  42660.00000  0    2630632.825     678708.535   -6533791.144
10 0 59827  42840.00000  0    1593891.002    -125214.762   -6892061.326
10 0 59827  43020.00000  0     479081.578    -896384.858   -7000328.735
10 0 59827  43200.00000  0    -672409.006   -1605513.397   -6854575.411
10 0 59827  43380.00000  0   -1817105.490   -2226609.092   -6459861.739
10 0 59827  43560.00000  0   -2911042.629   -2737916.910   -5830188.701
10 0 59827  43740.00000  0   -3911423.245   -3122684.817   -4988070.551
10 0 59827  43920.00000  0   -4778293.063   -3369736.664   -3963816.978
10 0 59827  44100.00000  0   -5476168.516   -3473822.701   -2794518.968
10 0 59827  44280.00000  0   -5975546.017   -3435726.729   -1522757.910
10 0 59827  44460.00000  0   -6254215.681   -3262116.651    -195068.953
10 0 59827  44640.00000  0   -6298304.677   -2965137.436    1139786.456
10 0 59827  44820.00000  0   -6102985.617   -2561760.975    2432670.044
10 0 59827  45000.00000  0   -5672796.036   -2072921.399    3635950.078
10 0 59827  45180.00000  0   -5021554.570   -1522484.860    4705323.211
10 0 59827  45360.00000  0   -4171874.524    -936108.155    5601490.207
10 0 59827  45540.00000  0   -3154316.167    -340053.591    6291609.792
10 0 59827  45720.00000  0   -2006220.661     239984.022    6750490.622
10 0 59827  45900.00000  0    -770277.343     779981.121    6961476.015
10 0 59827  46080.00000  0     507103.215    1258573.436    6917007.372
10 0 59827  46260.00000  0    1777550.784    1657897.824    6618864.101
10 0 59827  46440.00000  0    2992575.656    1964258.168    6078078.962
10 0 59827  46620.00000  0    4105427.604    2168592.820    5314535.296
10 0 59827  46800.00000  0    5072911.497    2266731.417    4356252.479
10 0 59827  46980.00000  0    5857093.017    2259435.948    3238378.733
10 0 59827  47160.00000  0    6426827.821    2152220.145    2001905.427
10 0 59827  47340.00000  0    6759033.101    1954956.375     692152.656
10 0 59827  47520.00000  0    6839646.060    1681288.179    -642921.349
10 0 59827  47700.00000  0    6664211.663    1347879.851   -1954515.771
10 0 59827  47880.00000  0    6238076.129     973539.329   -3194802.426
10 0 59827  48060.00000  0    5576182.008     578262.823   -4318687.428
10 0 59827  48240.00000  0    4702476.137     182254.083   -5285442.097
10 0 59827  48420.00000  0    3648975.166    -195033.411   -6060137.177
10 0 59827  48600.00000  0    2454545.765    -535785.806   -6614842.661
10 0 59827  48780.00000  0    1163450.778    -824615.268   -6929566.033
10 0 59827  48960.00000  0    -176276.709   -1049215.023   -6992913.471
10 0 59827  49140.00000  0   -1514582.799   -1200860.171   -6802470.912
10 0 59827  49320.00000  0   -2801214.432   -1274740.806   -6364901.023
10 0 59827  49500.00000  0   -3987564.284   -1270117.413   -5695751.076
10 0 59827  49680.00000  0   -5028489.196   -1190294.360   -4818976.213
10 0 59827  49860.00000  0   -5884052.443   -1042409.623   -3766167.998
10 0 59827  50040.00000  0   -6521117.530    -837044.570   -2575491.899
10 0 59827  50220.00000  0   -6914721.787    -587664.854   -1290350.146
10 0 59827  50400.00000  0   -7049153.337    -309914.527      42193.904
10 0 59827  50580.00000  0   -6918660.186     -20791.854    1373175.418
10 0 59827  50760.00000  0   -6527741.927     262247.121    2653587.607
10 0 59827  50940.00000  0   -5891004.573     522207.989    3836259.386
10 0 59827  51120.00000  0   -5032577.860     743452.018    4877658.545
10 0 59827  51300.00000  0   -3985132.354     912514.226    5739531.584
10 0 59827  51480.00000  0   -2788558.861    1018803.686    6390314.433
10 0 59827  51660.00000  0   -1488377.363    1055152.833    6806271.856
10 0 59827  51840.00000  0    -133945.848    1018194.276    6972327.571
10 0 59827  52020.00000  0    1223446.697     908549.374    6882567.585
10 0 59827  52200.00000  0    2532534.416     730823.965    6540422.235
10 0 59827  52380.00000  0    3744016.476     493413.029    5958527.166
10 0 59827  52560.00000  0    4812425.960     208120.722    5158265.359
10 0 59827  52740.00000  0    5697858.503    -110390.868    4168998.845
10 0 59827  52920.00000  0    6367499.777    -445302.102    3027009.034
10 0 59827  53100.00000  0    6796887.681    -778452.622    1774168.681
10 0 59827  53280.00000  0    6970842.347   -1091240.231     456390.526
10 0 59827  53460.00000  0    6884023.978   -1365556.594    -878084.012
10 0 59827  53640.00000  0    6541084.874   -1584711.534   -2180491.619
10 0 59827  53820.00000  0    5956406.309   -1734296.626   -3403361.853
10 0 59827  54000.00000  0    5153443.565   -1802944.676   -4502258.772
10 0 59827  54180.00000  0    4163724.229   -1782947.662   -5437378.738
10 0 59827  54360.00000  0    3025555.515   -1670708.562   -6174948.978
10 0 59827  54540.00000  0    1782507.338   -1467009.327   -6688381.776
10 0 59827  54720.00000  0     481742.469   -1177084.891   -6959165.615
10 0 59827  54900.00000  0    -827749.099    -810505.930   -6977477.599
10 0 59827  55080.00000  0   -2096951.985    -380873.929   -6742513.808
10 0 59827  55260.00000  0   -3278615.746      94665.649   -6262534.326
10 0 59827  55440.00000  0   -4328981.293     596079.185   -5554620.640
10 0 59827  55620.00000  0   -5209402.123    1101252.439   -4644146.479
10 0 59827  55800.00000  0   -5887807.500    1586927.383   -3563955.289
10 0 59827  55980.00000  0   -6339946.045    2029738.340   -2353246.782
10 0 59827  56160.00000  0   -6550344.932    2407298.345   -1056194.153
10 0 59827  56340.00000  0   -6512930.261    2699285.825     279668.299
10 0 59827  56520.00000  0   -6231259.553    2888471.905    1605229.042
10 0 59827  56700.00000  0   -5718340.267    2961631.833    2871671.001
10 0 59827  56880.00000  0   -4996040.857    2910287.169    4032341.343
10 0 59827  57060.00000  0   -4094126.255    2731234.932    5044530.543
10 0 59827  57240.00000  0   -3048973.726    2426838.237    5871075.358
10 0 59827  57420.00000  0   -1902042.639    2005069.832    6481727.358
10 0 59827  57600.00000  0    -698169.181    1479305.610    6854237.901
10 0 59827  57780.00000  0     516227.084     867880.441    6975126.086
10 0 59827  57960.00000  0    1694949.712     193428.869    6840126.948
10 0 59827  58140.00000  0    2793787.975    -517964.544    6454317.938
10 0 59827  58320.00000  0    3772179.272   -1237779.382    5831925.074
10 0 59827  58500.00000  0    4594719.713   -1936203.685    4995809.430
10 0 59827  58680.00000  0    5232466.557   -2583367.805    3976644.794
10 0 59827  58860.00000  0    5663988.574   -3150619.872    2811808.624
10 0 59827  59040.00000  0    5876115.375   -3611787.964    1544008.861
10 0 59827  59220.00000  0    5864346.448   -3944368.490     219700.551
99
